OBJECT_NAME,OBJECT_ID,EPOCH,MEAN_MOTION,ECCENTRICITY,INCLINATION,RA_OF_ASC_NODE,ARG_OF_PERICENTER,MEAN_ANOMALY,EPHEMERIS_TYPE,CLASSIFICATION_TYPE,NORAD_CAT_ID,ELEMENT_SET_NO,REV_AT_EPOCH,BSTAR,MEAN_MOTION_DOT,MEAN_MOTION_DDOT
SAUDISAT 1C (SO-50),2002-058C,2026-06-25T04:18:46.446336,14.83062534,.00750794,64.5519,104.2569,260.9817,98.2786,0,U,27607,999,26564,.12668282E-3,.928E-5,0
SAUDISAT 2,2004-025F,2026-06-25T06:31:11.266752,14.56688107,.00234405,98.5508,176.4625,272.1357,87.7156,0,U,28371,999,16692,.66262495E-4,.247E-5,0
SAUDISAT 3,2007-012B,2026-06-24T14:28:12.225792,14.71429238,.00141173,98.1456,126.0084,198.8462,161.2223,0,U,31118,999,2883,.41314576E-4,.205E-5,0
PISAT,2016-059B,2026-06-25T05:59:38.101920,14.68996042,.00290587,97.8179,176.3561,176.7677,183.3723,0,U,41784,999,52092,.15649557E-3,.876E-5,0
FLYING LAPTOP,2017-042G,2026-06-25T07:37:23.785824,15.01192342,.0019949,97.4722,331.5390,95.8241,264.5258,0,U,42831,999,48767,.23325345E-3,.2947E-4,0
SALSAT,2020-068K,2026-06-25T06:08:43.541664,15.29904088,.00078059,97.8852,179.8123,273.7441,86.2905,0,U,46495,999,31659,.29756227E-3,.854E-4,0
